FENGYUN 1C DEB          
1 30385U 99025ACY 17345.84545409  .00000104  00000-0  50830-4 0  9998
2 30385  99.0771 192.8313 0134229 201.2365 226.6691 14.33726109568626
